*******************************************************************************
Ephemeris / WWW_USER Tue Mar 27 19:57:58 2018 Pasadena, USA      / Horizons    
*******************************************************************************
Target body name: Earth-Moon Barycenter (3)       {source: DE431mx}
Center body name: Solar System Barycenter (0)     {source: DE431mx}
Center-site name: BODY CENTER
*******************************************************************************
Start time      : A.D. 2000-Jan-01 00:00:00.0000 TDB
Stop  time      : A.D. 2010-Jan-01 00:00:00.0000 TDB
Step-size       : 7200 minutes
*******************************************************************************
Center geodetic : 0.00000000,0.00000000,0.0000000 {E-lon(deg),Lat(deg),Alt(km)}
Center cylindric: 0.00000000,0.00000000,0.0000000 {E-lon(deg),Dxy(km),Dz(km)}
Center radii    : (undefined)                                                  
Output units    : AU-D                                                         
Output type     : GEOMETRIC cartesian states
Output format   : 2 (position and velocity)
Reference frame : ICRF/J2000.0                                                 
Coordinate systm: Ecliptic and Mean Equinox of Reference Epoch                 
*******************************************************************************
JDTDB
   X     Y     Z
   VX    VY    VZ
*******************************************************************************
$$SOE
2452174.500000000 = A.D. 2001-Sep-22 00:00:00.0000 TDB 
   1.001198212363299E+00 -2.231927076665502E-02  1.033812275961399E-04
   1.628687020069546E-05  1.713671311552454E-02 -3.043389696460585E-07
2452179.500000000 = A.D. 2001-Sep-27 00:00:00.0000 TDB 
   9.976058761612698E-01  6.332112619675669E-02  1.018584684618767E-04
  -1.453362815955643E-03  1.709848884576371E-02 -3.046517535829672E-07
2452184.500000000 = A.D. 2001-Oct-02 00:00:00.0000 TDB 
   9.866721091584647E-01  1.484556251012863E-01  1.003358041762895E-04
  -2.918492476822006E-03  1.693429928341501E-02 -3.043048047301197E-07
2452189.500000000 = A.D. 2001-Oct-07 00:00:00.0000 TDB 
   9.684465136019081E-01  2.324543444661313E-01  9.881655613411815E-05
  -4.368282343845441E-03  1.664427621656455E-02 -3.032761407438084E-07
2452194.500000000 = A.D. 2001-Oct-12 00:00:00.0000 TDB 
   9.430330074864701E-01  3.146903918932721E-01  9.730422645771008E-05
  -5.791839514344659E-03  1.622948799645369E-02 -3.015410836000870E-07
2452199.500000000 = A.D. 2001-Oct-17 00:00:00.0000 TDB 
   9.105899817452074E-01  3.945446108972916E-01  9.580225338153951E-05
  -7.178281917417553E-03  1.569196433748914E-02 -2.991371650628736E-07
2452204.500000000 = A.D. 2001-Oct-22 00:00:00.0000 TDB 
   8.713300315011140E-01  4.714104356181115E-01  9.431400282342229E-05
  -8.516824745900226E-03  1.503471375834560E-02 -2.960471813721122E-07
2452209.500000000 = A.D. 2001-Oct-27 00:00:00.0000 TDB 
   8.255192397164456E-01  5.446988055925249E-01  9.284288392115821E-05
  -9.796873959618846E-03  1.426173031120345E-02 -2.922973627569940E-07
2452214.500000000 = A.D. 2001-Nov-01 00:00:00.0000 TDB 
   7.734759777626306E-01  6.138430942596059E-01  9.139202403479973E-05
  -1.100812454566704E-02  1.337799268608344E-02 -2.879466313059999E-07
2452219.500000000 = A.D. 2001-Nov-06 00:00:00.0000 TDB 
   7.155692155242515E-01  6.783040094553915E-01  8.996444346084615E-05
  -1.214065864762129E-02  1.238945291432005E-02 -2.829831008519679E-07
2452224.500000000 = A.D. 2001-Nov-11 00:00:00.0000 TDB 
   6.522163337957105E-01  7.375744030243817E-01  8.856315218411621E-05
  -1.318504698289627E-02  1.130301137391481E-02 -2.774457056493030E-07
2452229.500000000 = A.D. 2001-Nov-16 00:00:00.0000 TDB 
   5.838804236676938E-01  7.911839271248937E-01  8.719083058268070E-05
  -1.413245151162185E-02  1.012648113165492E-02 -2.713973406170565E-07
2452234.500000000 = A.D. 2001-Nov-21 00:00:00.0000 TDB 
   5.110670832375830E-01  8.387034866664002E-01  8.585003924851179E-05
  -1.497472349704881E-02  8.868541092641440E-03 -2.648375090451591E-07
2452239.500000000 = A.D. 2001-Nov-26 00:00:00.0000 TDB 
   4.343207307851191E-01  8.797494180789479E-01  8.454318098263110E-05
  -1.570449951382041E-02  7.538673444664292E-03 -2.578412869029235E-07
2452244.500000000 = A.D. 2001-Dec-01 00:00:00.0000 TDB 
   3.542204451522026E-01  9.139873260978629E-01  8.327224658699473E-05
  -1.631529330955219E-02  6.147090387610665E-03 -2.504699830168550E-07
2452249.500000000 = A.D. 2001-Dec-06 00:00:00.0000 TDB 
   2.713753703608925E-01  9.411355295529197E-01  8.203909171666937E-05
  -1.680157796416895E-02  4.704650188888195E-03 -2.427372531240699E-07
2452254.500000000 = A.D. 2001-Dec-11 00:00:00.0000 TDB 
   1.864197317103157E-01  9.609680519391591E-01  8.084531322243950E-05
  -1.715885954836301E-02  3.222759076333078E-03 -2.347385930925168E-07
2452259.500000000 = A.D. 2001-Dec-16 00:00:00.0000 TDB 
   1.000075046464955E-01  9.733170959287619E-01  7.969204822620826E-05
  -1.738374155998407E-02  1.713264312633605E-03 -2.265329786923078E-07
2452264.500000000 = A.D. 2001-Dec-21 00:00:00.0000 TDB 
   1.280679682852332E-02  9.780749692143058E-01  7.858027730397988E-05
  -1.747397462937613E-02  1.883408422019810E-04 -2.181555810919251E-07
2452269.500000000 = A.D. 2001-Dec-26 00:00:00.0000 TDB 
  -7.450598267745466E-02  9.751954171026470E-01  7.751058478596466E-05
  -1.742849259058913E-02 -1.339632418043112E-03 -2.097193756113100E-07
2452274.500000000 = A.D. 2001-Dec-31 00:00:00.0000 TDB 
  -1.612521029511426E-01  9.646943244537547E-01  7.648308974205404E-05
  -1.724743533924406E-02 -2.858199696876774E-03 -2.012786765496966E-07
2452279.500000000 = A.D. 2002-Jan-05 00:00:00.0000 TDB 
  -2.467565633460272E-01  9.466497818080392E-01  7.549773563324034E-05
  -1.693215452016620E-02 -4.354956052775945E-03 -1.928800048670217E-07
2452284.500000000 = A.D. 2002-Jan-10 00:00:00.0000 TDB 
  -3.303541306267190E-01  9.212015042247442E-01  7.455402106188030E-05
  -1.648520245585776E-02 -5.817678616150219E-03 -1.846372850545529E-07
2452289.500000000 = A.D. 2002-Jan-15 00:00:00.0000 TDB 
  -4.113952864031868E-01  8.885495966319324E-01  7.365104816061778E-05
  -1.591030736597315E-02 -7.234454992100934E-03 -1.765853562269574E-07
2452294.500000000 = A.D. 2002-Jan-20 00:00:00.0000 TDB 
  -4.892520102159126E-01  8.489526956801653E-01  7.278775038751575E-05
  -1.521233176921601E-02 -8.593804938453506E-03 -1.687857969261909E-07
2452299.500000000 = A.D. 2002-Jan-25 00:00:00.0000 TDB 
  -5.633233128418123E-01  8.027255107311431E-01  7.196259657576817E-05
  -1.439721507468681E-02 -9.884798846734854E-03 -1.613381256623324E-07
2452304.500000000 = A.D. 2002-Jan-30 00:00:00.0000 TDB 
  -6.330404534786114E-01  7.502357922768197E-01  7.117374502804423E-05
  -1.347190484598615E-02 -1.109716695835966E-02 -1.542676223104916E-07
2452309.500000000 = A.D. 2002-Feb-04 00:00:00.0000 TDB 
  -6.978717831350010E-01  6.919007866158288E-01  7.041916976902098E-05
  -1.244427549312285E-02 -1.222139598254792E-02 -1.476486913367605E-07
2452314.500000000 = A.D. 2002-Feb-09 00:00:00.0000 TDB 
  -7.573271481811590E-01  6.281832305645225E-01  6.969634890885980E-05
  -1.132303449453139E-02 -1.324881684145442E-02 -1.415704998751328E-07
2452319.500000000 = A.D. 2002-Feb-14 00:00:00.0000 TDB 
  -8.109618091335026E-01  5.595869364450631E-01  6.900255646710410E-05
  -1.011762307862798E-02 -1.417167937832845E-02 -1.360411659412607E-07
2452324.500000000 = A.D. 2002-Feb-19 00:00:00.0000 TDB 
  -8.583798477025955E-01  4.866520452666620E-01  6.833490758898402E-05
  -8.838110061981517E-03 -1.498321103353292E-02 -1.311289865182204E-07
2452329.500000000 = A.D. 2002-Feb-24 00:00:00.0000 TDB 
  -8.992370243435011E-01  4.099500163762121E-01  6.769013932201056E-05
  -7.495079208970533E-03 -1.567766385687172E-02 -1.268894336577977E-07
2452334.500000000 = A.D. 2002-Mar-01 00:00:00.0000 TDB 
  -9.332430709701127E-01  3.300784149032517E-01  6.706491447392744E-05
  -6.099516760681742E-03 -1.625034762508723E-02 -1.233135415788342E-07
2452339.500000000 = A.D. 2002-Mar-06 00:00:00.0000 TDB 
  -9.601634236848460E-01  2.476555743282119E-01  6.645580146594984E-05
  -4.662699194881713E-03 -1.669764692631368E-02 -1.204562791740383E-07
2452344.500000000 = A.D. 2002-Mar-11 00:00:00.0000 TDB 
  -9.798203889484532E-01  1.633152047032027E-01  6.585912949852545E-05
  -3.196079534626067E-03 -1.701702665345604E-02 -1.183311436868683E-07
2452349.500000000 = A.D. 2002-Mar-16 00:00:00.0000 TDB 
  -9.920937542030404E-01  7.770100072657479E-02  6.527129765410164E-05
  -1.711179848083988E-03 -1.720702579923182E-02 -1.169250799663974E-07
2452354.500000000 = A.D. 2002-Mar-21 00:00:00.0000 TDB 
  -9.969208754747076E-01 -8.538684262170441E-03  6.468859248406011E-05
  -2.194885062824973E-04 -1.726723774344234E-02 -1.162876549069689E-07
2452359.500000000 = A.D. 2002-Mar-26 00:00:00.0000 TDB 
  -9.942962575522355E-01 -9.475604132308242E-02  6.410715270133817E-05
   1.267639364210004E-03 -1.719828146733430E-02 -1.164099782811549E-07
2452364.500000000 = A.D. 2002-Mar-31 00:00:00.0000 TDB 
  -9.842706569142465E-01 -1.803088461804983E-01  6.352328100566921E-05
   2.739072372549178E-03 -1.700176499691418E-02 -1.172634018941668E-07
2452369.500000000 = A.D. 2002-Apr-05 00:00:00.0000 TDB 
  -9.669497561881721E-01 -2.645652932365790E-01  6.293324972533369E-05
   4.183984790924352E-03 -1.668023940648226E-02 -1.188732808521894E-07
2452374.500000000 = A.D. 2002-Apr-10 00:00:00.0000 TDB 
  -9.424924395889920E-01 -3.469085823778330E-01  6.233337074097717E-05
   5.591933872558789E-03 -1.623714699820415E-02 -1.211915882359901E-07
2452379.500000000 = A.D. 2002-Apr-15 00:00:00.0000 TDB 
  -9.111087066788656E-01 -4.267412396293162E-01  6.172019287433782E-05
   6.952926348689509E-03 -1.567676630484354E-02 -1.241962920960009E-07
